#aV2009  6 23  0  0   .00000000      96 DD+AD WGS84 FIT  NGA
## 1537 172800.00000000   900.00000000 55005  .0000000000000
+   31     1  2  3  4  6  7  8  9 10 11 12 13 14 15 16 17 18
+         19 20 21 22 23 24 25 26 27 28 29 30 31 32  0  0  0
+          0  0  0  0  0  0  0  0  0  0  0  0  0  0  0  0  0
+          0  0  0  0  0  0  0  0  0  0  0  0  0  0  0  0  0
+          0  0  0  0  0  0  0  0  0  0  0  0  0  0  0  0  0
++         0  0  0  0  0  0  0  0  0  0  0  0  0  0  0  0  0
++         0  0  0  0  0  0  0  0  0  0  0  0  0  0  0  0  0
++         0  0  0  0  0  0  0  0  0  0  0  0  0  0  0  0  0
++         0  0  0  0  0  0  0  0  0  0  0  0  0  0  0  0  0
++         0  0  0  0  0  0  0  0  0  0  0  0  0  0  0  0  0
%c cc cc ccc ccc cccc cccc cccc cccc ccccc ccccc ccccc ccccc
%c cc cc ccc ccc cccc cccc cccc cccc ccccc ccccc ccccc ccccc
%f  0.0000000  0.000000000  0.00000000000  0.000000000000000
%f  0.0000000  0.000000000  0.00000000000  0.000000000000000
%i    0    0    0    0      0      0      0      0         0
%i    0    0    0    0      0      0      0      0         0
/*      NGA, ST. LOUIS,MO.                                  
/*   EPHEMERIS COMPUTED FROM  3 DAYS OF DATA                
/* CCCCCCCCCCCCCCCCCCCCCCCCCCCCCCCCCCCCCCCCCCCCCCCCCCCCCCCCC
/* CCCCCCCCCCCCCCCCCCCCCCCCCCCCCCCCCCCCCCCCCCCCCCCCCCCCCCCCC
*  2009  6 23  5 30   .00000000                                                 
P  1 -15947.071236   5173.781921  20485.988050    -73.814564                    
V  1   5167.681087 -25745.646384  10580.670583       .049791                    
P  2  -9732.734915 -21543.318416  12427.356471    157.263267                    
V  2  13263.279507   8960.453753  25325.017466       .012643                    
P  3   7848.325007  14152.083316 -21389.107006    410.390093                    
V  3 -24484.510260  10299.136347  -1842.495048       .052237                    
P  4   2286.810009 -17628.806234  19491.954498   -144.561960                    
V  4  19214.018855  16417.466924  12871.288952      -.160591                    
P  6   1914.484274  15813.449484 -21055.485579    170.262194                    
V  6 -26010.008685   8303.343969   3903.691058       .126036                    
P  7  18958.071771    416.549075 -18672.218683     16.552983                    
V  7  16096.258590  17304.091621  16624.886238      -.007059                    
P  8  10011.372822 -10680.938795 -22193.137342   -208.841392                    
V  8  19160.965030  20422.548969  -1676.614499      -.016093                    
P  9 -21264.172826 -15170.258919   4384.116689     62.644970                    
V  9  -3206.357400  -5971.588010 -31403.378335       .019703                    
P 10  -3282.923520 -22812.452279 -13062.103040    -17.939674                    
V 10   6756.703630 -15216.312338  25519.313228      -.006002                    
P 11  24144.296462  10434.251889   4644.162525     -7.649312                    
V 11   2817.760339   7179.053902 -29100.243778      -.015807                    
P 12 -13522.438589  -7450.392253  21689.454010   -262.089048                    
V 12   7028.031291 -26432.224628  -4589.489085       .059508                    
P 13  25876.678626  -6004.330274   -219.752669    299.988133                    
V 13    496.937452   1661.615958  32480.683381       .007807                    
P 14 -16679.229748  14284.416645  14969.904981    -90.650617                    
V 14 -18601.019313   3070.772702 -23961.472446       .057593                    
P 15 -14945.018389  -9905.237910 -19593.065529   -303.160750                    
V 15  23477.935650  -8454.371518 -13556.575144      -.030090                    
P 16   -873.508483  25052.196154  -8336.640821     39.447917                    
V 16  -5293.710323   9674.319822  29667.244141      -.034967                    
P 17  17372.447953 -14624.557901  13688.784797     66.075113                    
V 17  17353.103046  -2255.616528 -24748.115735       .021239                    
P 18 -15886.167037  13345.510593 -16133.078443    -45.902311                    
V 18   3229.956742 -21023.841466 -20661.046057       .031840                    
P 19  16717.832945   9650.710428 -18290.720840     21.559899                    
V 19 -22473.914517   6219.036602 -16946.118743      -.013183                    
P 20  14701.427080   5366.842910  21334.545855     79.201028                    
V 20  -6181.227662  26753.343386  -2418.971592      -.009880                    
P 21 -17870.501180   2460.414502 -19413.267336      6.801941                    
V 21 -16928.457210 -18636.052097  12411.376097      -.021474                    
P 22 -11873.286161  22547.395609  -7187.103236    196.959719                    
V 22   -672.646371  -9944.912943 -29517.941371      -.006691                    
P 23  23894.107785   1613.025962  11746.276198    390.207953                    
V 23 -13784.563274   5902.726370  26832.137634      -.000385                    
P 24 -21217.152455  -9951.300927 -12120.795962    198.958572                    
V 24  -8692.144190 -13394.786768  26182.256424       .029206                    
P 25  21996.900242   6047.055170 -13094.929531    475.345278                    
V 25  12084.543321  12513.477054  25607.366220       .176384                    
P 26 -26058.378010   1379.877654  -6848.058813     64.080569                    
V 26   7345.963199  -2917.463266 -30566.709656       .004993                    
P 27 -19974.537884 -17462.841175   -361.399098     59.788109                    
V 27   2544.204547   -992.350382 -32068.009040       .031735                    
P 28  12595.098734 -21044.952457  -9350.481296    -25.619086                    
V 28   -788.141347  12847.455081 -28968.348627      -.002410                    
P 29 -25947.637648   5120.615742   2277.107239     32.788859                    
V 29   1951.221228  -3481.899602  31581.245706       .036862                    
P 30 -15793.411983   5042.667480  20360.579905    155.692941                    
V 30   4282.985519 -26423.188551   9772.827590       .026894                    
P 31    227.569961  18420.658268  19284.737253    -62.774489                    
V 31 -18193.101655 -15802.754950  15611.732277      -.006745                    
P 32   9691.437129  14962.536996  20161.678699    242.985885                    
V 32  -8783.414907  23056.473094 -12889.938060      -.057539                    
EOF
